{
 "generated_at": "2026-06-19T09:28:30Z",
 "sources": [
  {
   "name": "CelesTrak",
   "url": "https://celestrak.org/NORAD/elements/",
   "license": "frei verfügbar; Attribution. Ursprünglich USSPACECOM/Space-Track."
  },
  {
   "name": "GCAT (J. McDowell, planet4589.org)",
   "url": "https://planet4589.org/space/gcat/",
   "license": "CC-BY 4.0"
  }
 ],
 "satellites": [
  {
   "norad": 60546,
   "name": "ICEYE-X39",
   "intl": "2024-149CG",
   "group": "sar",
   "gcat": {
    "class": "B",
    "category": "IMG-R",
    "owner": "FAB/ICEYE",
    "state": "BR"
   },
   "omm": {
    "OBJECT_NAME": "ICEYE-X39",
    "OBJECT_ID": "2024-149CG",
    "EPOCH": "2026-06-18T22:40:41.253024",
    "MEAN_MOTION": 14.99904717,
    "ECCENTRICITY": 0.0005476,
    "INCLINATION": 97.6759,
    "RA_OF_ASC_NODE": 246.9446,
    "ARG_OF_PERICENTER": 114.4437,
    "MEAN_ANOMALY": 245.7359,
    "EPHEMERIS_TYPE": 0,
    "CLASSIFICATION_TYPE": "U",
    "NORAD_CAT_ID": 60546,
    "ELEMENT_SET_NO": 999,
    "REV_AT_EPOCH": 10038,
    "BSTAR": 0.00020559,
    "MEAN_MOTION_DOT": 0.00002492,
    "MEAN_MOTION_DDOT": 0
   }
  },
  {
   "norad": 44390,
   "name": "ICEYE-X4",
   "intl": "2019-038D",
   "group": "sar",
   "gcat": {
    "class": "B",
    "category": "IMG-R",
    "owner": "ICEYE",
    "state": "FI"
   },
   "omm": {
    "OBJECT_NAME": "ICEYE-X4",
    "OBJECT_ID": "2019-038D",
    "EPOCH": "2026-06-19T03:51:34.554240",
    "MEAN_MOTION": 15.29331114,
    "ECCENTRICITY": 0.0011471,
    "INCLINATION": 97.8755,
    "RA_OF_ASC_NODE": 203.189,
    "ARG_OF_PERICENTER": 299.446,
    "MEAN_ANOMALY": 60.5634,
    "EPHEMERIS_TYPE": 0,
    "CLASSIFICATION_TYPE": "U",
    "NORAD_CAT_ID": 44390,
    "ELEMENT_SET_NO": 999,
    "REV_AT_EPOCH": 38210,
    "BSTAR": 0.0003436,
    "MEAN_MOTION_DOT": 0.00009713,
    "MEAN_MOTION_DDOT": 0
   }
  },
  {
   "norad": 60549,
   "name": "ICEYE-X40",
   "intl": "2024-149CK",
   "group": "sar",
   "gcat": {
    "class": "B",
    "category": "IMG-R",
    "owner": "ALYAH",
    "state": "UAE"
   },
   "omm": {
    "OBJECT_NAME": "ICEYE-X40",
    "OBJECT_ID": "2024-149CK",
    "EPOCH": "2026-06-19T04:09:04.716864",
    "MEAN_MOTION": 14.97949995,
    "ECCENTRICITY": 0.0006509,
    "INCLINATION": 97.6821,
    "RA_OF_ASC_NODE": 246.6369,
    "ARG_OF_PERICENTER": 76.3129,
    "MEAN_ANOMALY": 283.8818,
    "EPHEMERIS_TYPE": 0,
    "CLASSIFICATION_TYPE": "U",
    "NORAD_CAT_ID": 60549,
    "ELEMENT_SET_NO": 999,
    "REV_AT_EPOCH": 10037,
    "BSTAR": 0.00015225,
    "MEAN_MOTION_DOT": 0.00001738,
    "MEAN_MOTION_DDOT": 0
   }
  },
  {
   "norad": 62700,
   "name": "ICEYE-X41",
   "intl": "2025-009CV",
   "group": "sar",
   "gcat": {
    "class": "B",
    "category": "IMG-R",
    "owner": "ICEUS",
    "state": "US"
   },
   "omm": {
    "OBJECT_NAME": "ICEYE-X41",
    "OBJECT_ID": "2025-009CV",
    "EPOCH": "2026-06-19T05:01:39.085824",
    "MEAN_MOTION": 14.96761364,
    "ECCENTRICITY": 0.0001952,
    "INCLINATION": 97.7062,
    "RA_OF_ASC_NODE": 249.7063,
    "ARG_OF_PERICENTER": 51.1621,
    "MEAN_ANOMALY": 308.9774,
    "EPHEMERIS_TYPE": 0,
    "CLASSIFICATION_TYPE": "U",
    "NORAD_CAT_ID": 62700,
    "ELEMENT_SET_NO": 999,
    "REV_AT_EPOCH": 7771,
    "BSTAR": 0.00022219,
    "MEAN_MOTION_DOT": 0.00002483,
    "MEAN_MOTION_DDOT": 0
   }
  },
  {
   "norad": 62698,
   "name": "ICEYE-X42",
   "intl": "2025-009CT",
   "group": "sar",
   "gcat": {
    "class": "B",
    "category": "IMG-R",
    "owner": "SP42",
    "state": "UAE"
   },
   "omm": {
    "OBJECT_NAME": "ICEYE-X42",
    "OBJECT_ID": "2025-009CT",
    "EPOCH": "2026-06-19T03:38:56.184288",
    "MEAN_MOTION": 14.91854774,
    "ECCENTRICITY": 0.000135,
    "INCLINATION": 97.7398,
    "RA_OF_ASC_NODE": 248.4316,
    "ARG_OF_PERICENTER": 90.8775,
    "MEAN_ANOMALY": 269.2598,
    "EPHEMERIS_TYPE": 0,
    "CLASSIFICATION_TYPE": "U",
    "NORAD_CAT_ID": 62698,
    "ELEMENT_SET_NO": 999,
    "REV_AT_EPOCH": 7758,
    "BSTAR": 0.00017885,
    "MEAN_MOTION_DOT": 0.00001751,
    "MEAN_MOTION_DDOT": 0
   }
  },
  {
   "norad": 60539,
   "name": "ICEYE-X43",
   "intl": "2024-149BZ",
   "group": "sar",
   "gcat": {
    "class": "B",
    "category": "IMG-R",
    "owner": "FAB/ICEYE",
    "state": "BR"
   },
   "omm": {
    "OBJECT_NAME": "ICEYE-X43",
    "OBJECT_ID": "2024-149BZ",
    "EPOCH": "2026-06-19T03:55:58.556352",
    "MEAN_MOTION": 14.99628994,
    "ECCENTRICITY": 0.0008284,
    "INCLINATION": 97.6789,
    "RA_OF_ASC_NODE": 247.1012,
    "ARG_OF_PERICENTER": 79.1462,
    "MEAN_ANOMALY": 281.0693,
    "EPHEMERIS_TYPE": 0,
    "CLASSIFICATION_TYPE": "U",
    "NORAD_CAT_ID": 60539,
    "ELEMENT_SET_NO": 999,
    "REV_AT_EPOCH": 10041,
    "BSTAR": 0.00026659,
    "MEAN_MOTION_DOT": 0.00003226,
    "MEAN_MOTION_DDOT": 0
   }
  },
  {
   "norad": 62707,
   "name": "ICEYE-X44",
   "intl": "2025-009DC",
   "group": "sar",
   "gcat": {
    "class": "B",
    "category": "IMG-R",
    "owner": "SP42",
    "state": "UAE"
   },
   "omm": {
    "OBJECT_NAME": "ICEYE-X44",
    "OBJECT_ID": "2025-009DC",
    "EPOCH": "2026-06-18T18:10:51.725568",
    "MEAN_MOTION": 14.96023218,
    "ECCENTRICITY": 0.00027301,
    "INCLINATION": 97.7054,
    "RA_OF_ASC_NODE": 248.8585,
    "ARG_OF_PERICENTER": 114.1469,
    "MEAN_ANOMALY": 246.0038,
    "EPHEMERIS_TYPE": 0,
    "CLASSIFICATION_TYPE": "U",
    "NORAD_CAT_ID": 62707,
    "ELEMENT_SET_NO": 999,
    "REV_AT_EPOCH": 10017,
    "BSTAR": 0.00024195795,
    "MEAN_MOTION_DOT": 0.00002658,
    "MEAN_MOTION_DDOT": 0
   }
  },
  {
   "norad": 62705,
   "name": "ICEYE-X45",
   "intl": "2025-009DA",
   "group": "sar",
   "gcat": {
    "class": "B",
    "category": "IMG-R",
    "owner": "ICEUS",
    "state": "US"
   },
   "omm": {
    "OBJECT_NAME": "ICEYE-X45",
    "OBJECT_ID": "2025-009DA",
    "EPOCH": "2026-06-19T04:42:38.884896",
    "MEAN_MOTION": 15.00847842,
    "ECCENTRICITY": 0.0001236,
    "INCLINATION": 97.833,
    "RA_OF_ASC_NODE": 256.8985,
    "ARG_OF_PERICENTER": 81.5927,
    "MEAN_ANOMALY": 278.5437,
    "EPHEMERIS_TYPE": 0,
    "CLASSIFICATION_TYPE": "U",
    "NORAD_CAT_ID": 62705,
    "ELEMENT_SET_NO": 999,
    "REV_AT_EPOCH": 7798,
    "BSTAR": 0.00022525,
    "MEAN_MOTION_DOT": 0.00002802,
    "MEAN_MOTION_DDOT": 0
   }
  },
  {
   "norad": 63258,
   "name": "ICEYE-X46",
   "intl": "2025-052BA",
   "group": "sar",
   "gcat": {
    "class": "B",
    "category": "IMG-R",
    "owner": "ICEYE",
    "state": "FI"
   },
   "omm": {
    "OBJECT_NAME": "ICEYE-X46",
    "OBJECT_ID": "2025-052BA",
    "EPOCH": "2026-06-18T23:04:24.553056",
    "MEAN_MOTION": 14.95292817,
    "ECCENTRICITY": 0.0001638,
    "INCLINATION": 97.6889,
    "RA_OF_ASC_NODE": 61.8212,
    "ARG_OF_PERICENTER": 85.464,
    "MEAN_ANOMALY": 274.6768,
    "EPHEMERIS_TYPE": 0,
    "CLASSIFICATION_TYPE": "U",
    "NORAD_CAT_ID": 63258,
    "ELEMENT_SET_NO": 999,
    "REV_AT_EPOCH": 6891,
    "BSTAR": 0.000076451,
    "MEAN_MOTION_DOT": 0.00000786,
    "MEAN_MOTION_DDOT": 0
   }
  },
  {
   "norad": 62389,
   "name": "ICEYE-X47",
   "intl": "2024-247N",
   "group": "sar",
   "gcat": {
    "class": "B",
    "category": "IMG-R",
    "owner": "ICEYE",
    "state": "FI"
   },
   "omm": {
    "OBJECT_NAME": "ICEYE-X47",
    "OBJECT_ID": "2024-247N",
    "EPOCH": "2026-06-19T04:35:37.492224",
    "MEAN_MOTION": 15.13288527,
    "ECCENTRICITY": 0.0002456,
    "INCLINATION": 44.9986,
    "RA_OF_ASC_NODE": 346.2936,
    "ARG_OF_PERICENTER": 256.5895,
    "MEAN_ANOMALY": 103.4709,
    "EPHEMERIS_TYPE": 0,
    "CLASSIFICATION_TYPE": "U",
    "NORAD_CAT_ID": 62389,
    "ELEMENT_SET_NO": 999,
    "REV_AT_EPOCH": 8248,
    "BSTAR": 0.00022047,
    "MEAN_MOTION_DOT": 0.00003735,
    "MEAN_MOTION_DDOT": 0
   }
  },
  {
   "norad": 63253,
   "name": "ICEYE-X48",
   "intl": "2025-052AV",
   "group": "sar",
   "gcat": {
    "class": "B",
    "category": "IMG-R",
    "owner": "ICEUS",
    "state": "US"
   },
   "omm": {
    "OBJECT_NAME": "ICEYE-X48",
    "OBJECT_ID": "2025-052AV",
    "EPOCH": "2026-06-19T04:39:09.956736",
    "MEAN_MOTION": 14.97980309,
    "ECCENTRICITY": 0.0002304,
    "INCLINATION": 97.6885,
    "RA_OF_ASC_NODE": 62.3509,
    "ARG_OF_PERICENTER": 139.289,
    "MEAN_ANOMALY": 220.8504,
    "EPHEMERIS_TYPE": 0,
    "CLASSIFICATION_TYPE": "U",
    "NORAD_CAT_ID": 63253,
    "ELEMENT_SET_NO": 999,
    "REV_AT_EPOCH": 6897,
    "BSTAR": 0.00021663,
    "MEAN_MOTION_DOT": 0.00002498,
    "MEAN_MOTION_DDOT": 0
   }
  },
  {
   "norad": 62384,
   "name": "ICEYE-X49",
   "intl": "2024-247H",
   "group": "sar",
   "gcat": {
    "class": "B",
    "category": "IMG-R",
    "owner": "ICEYE",
    "state": "FI"
   },
   "omm": {
    "OBJECT_NAME": "ICEYE-X49",
    "OBJECT_ID": "2024-247H",
    "EPOCH": "2026-06-18T22:50:07.020960",
    "MEAN_MOTION": 15.12997344,
    "ECCENTRICITY": 0.0001181,
    "INCLINATION": 44.9994,
    "RA_OF_ASC_NODE": 347.9753,
    "ARG_OF_PERICENTER": 269.667,
    "MEAN_ANOMALY": 90.4072,
    "EPHEMERIS_TYPE": 0,
    "CLASSIFICATION_TYPE": "U",
    "NORAD_CAT_ID": 62384,
    "ELEMENT_SET_NO": 999,
    "REV_AT_EPOCH": 8244,
    "BSTAR": 0.00020681,
    "MEAN_MOTION_DOT": 0.00003458,
    "MEAN_MOTION_DDOT": 0
   }
  },
  {
   "norad": 63255,
   "name": "ICEYE-X50",
   "intl": "2025-052AX",
   "group": "sar",
   "gcat": {
    "class": "B",
    "category": "IMG-R",
    "owner": "ICEYE",
    "state": "FI"
   },
   "omm": {
    "OBJECT_NAME": "ICEYE-X50",
    "OBJECT_ID": "2025-052AX",
    "EPOCH": "2026-06-19T03:58:09.719328",
    "MEAN_MOTION": 14.95283674,
    "ECCENTRICITY": 0.0001839,
    "INCLINATION": 97.6889,
    "RA_OF_ASC_NODE": 62.023,
    "ARG_OF_PERICENTER": 153.7006,
    "MEAN_ANOMALY": 206.4308,
    "EPHEMERIS_TYPE": 0,
    "CLASSIFICATION_TYPE": "U",
    "NORAD_CAT_ID": 63255,
    "ELEMENT_SET_NO": 999,
    "REV_AT_EPOCH": 6894,
    "BSTAR": 0.00012791,
    "MEAN_MOTION_DOT": 0.00001352,
    "MEAN_MOTION_DDOT": 0
   }
  }
 ]
}
